NORAD_CAT_ID,OBJECT_NAME,OBJECT_TYPE,EPOCH,MEAN_MOTION,ECCENTRICITY,INCLINATION,RA_OF_ASC_NODE,ARG_OF_PERICENTER,MEAN_ANOMALY,BSTAR,MEAN_MOTION_DOT,MEAN_MOTION_DDOT,TLE_LINE0,TLE_LINE1,TLE_LINE2,SEMIMAJOR_AXIS,PERIOD,APOGEE,PERIGEE,DECAYED
52556.0,STARLINK-3763,PAYLOAD,2024-04-16 09:23:19,15.12119005,0.0001306,53.2194,343.5647,93.3296,266.7847,4.7447e-05,5.29e-06,0.0,0 STARLINK-3763,1 52556U 22051Z   24107.39119258  .00000529  00000-0  47447-4 0  9991,2 52556  53.2194 343.5647 0001306  93.3296 266.7847 15.12119005107129,6907.876,95.231,530.643,528.839,0.0
52556.0,STARLINK-3763,PAYLOAD,2024-04-16 22:04:44,15.12119171,0.0001242,53.219,341.1789,92.6538,267.4598,-1.3806e-05,-5.38e-06,0.0,0 STARLINK-3763,1 52556U 22051Z   24107.91996453 -.00000538  00000-0 -13806-4 0  9993,2 52556  53.2190 341.1789 0001242  92.6538 267.4598 15.12119171107200,6907.875,95.231,530.598,528.882,0.0
52556.0,STARLINK-3763,PAYLOAD,2024-04-17 01:15:06,15.12118578,0.0001242,53.2189,340.5827,91.7075,268.4061,-1.7699e-05,-6.06e-06,0.0,0 STARLINK-3763,1 52556U 22051Z   24108.05215754 -.00000606  00000-0 -17699-4 0  9997,2 52556  53.2189 340.5827 0001242  91.7075 268.4061 15.12118578107295,6907.877,95.231,530.6,528.884,0.0
52556.0,STARLINK-3763,PAYLOAD,2024-04-17 21:52:26,15.12111337,0.0001193,53.2184,336.7068,84.0127,276.1003,-1.1366e-05,-4.95e-06,0.0,0 STARLINK-3763,1 52556U 22051Z   24108.91141471 -.00000495  00000-0 -11366-4 0  9997,2 52556  53.2184 336.7068 0001193  84.0127 276.1003 15.12111337107357,6907.899,95.231,530.588,528.94,0.0
52556.0,STARLINK-3763,PAYLOAD,2024-04-18 01:02:47,15.12113456,0.0001161,53.2184,336.1101,82.4407,277.6718,-3.7299e-05,-9.47e-06,0.0,0 STARLINK-3763,1 52556U 22051Z   24109.04360731 -.00000947  00000-0 -37299-4 0  9999,2 52556  53.2184 336.1101 0001161  82.4407 277.6718 15.12113456107440,6907.893,95.231,530.56,528.956,0.0
52556.0,STARLINK-3763,PAYLOAD,2024-04-18 21:40:06,15.12114043,0.0001097,53.2177,332.2329,78.4818,281.6299,3.6443e-08,-2.97e-06,0.0,0 STARLINK-3763,1 52556U 22051Z   24109.90285769 -.00000297  00000-0  36443-7 0  9991,2 52556  53.2177 332.2329 0001097  78.4818 281.6299 15.12114043107509,6907.891,95.231,530.514,528.998,0.0
52556.0,STARLINK-3763,PAYLOAD,2024-04-19 13:31:54,15.12110986,0.0001121,53.2181,329.2509,77.2841,282.8278,1.8428e-05,2.4e-07,0.0,0 STARLINK-3763,1 52556U 22051Z   24110.56382323  .00000024  00000-0  18428-4 0  9996,2 52556  53.2181 329.2509 0001121  77.2841 282.8278 15.12110986107671,6907.9,95.231,530.54,528.991,0.0
52556.0,STARLINK-3763,PAYLOAD,2024-04-19 21:27:47,15.1211922,0.0001233,53.2185,327.7599,80.5422,279.5711,7.3281e-05,9.8e-06,0.0,0 STARLINK-3763,1 52556U 22051Z   24110.89429775  .00000980  00000-0  73281-4 0  9994,2 52556  53.2185 327.7599 0001233  80.5422 279.5711 15.12119220107656,6907.875,95.231,530.592,528.889,0.0
52556.0,STARLINK-3763,PAYLOAD,2024-04-20 00:38:08,15.12120343,0.000123,53.2184,327.1628,80.3121,279.8011,7.8692e-05,1.074e-05,0.0,0 STARLINK-3763,1 52556U 22051Z   24111.02648906  .00001074  00000-0  78692-4 0  9995,2 52556  53.2184 327.1628 0001230  80.3121 279.8011 15.12120343107747,6907.872,95.231,530.586,528.887,0.0
52556.0,STARLINK-3763,PAYLOAD,2024-04-20 19:40:17,15.12112444,0.0001418,53.2195,323.5834,107.9574,252.1575,9.1947e-06,-1.37e-06,0.0,0 STARLINK-3763,1 52556U 22051Z   24111.81965057 -.00000137  00000-0  91947-5 0  9990,2 52556  53.2195 323.5834 0001418 107.9574 252.1575 15.12112444107869,6907.896,95.231,530.74,528.781,0.0
52556.0,STARLINK-3763,PAYLOAD,2024-04-20 22:50:40,15.12099961,0.0001338,53.2189,322.9873,93.2131,266.9015,-8.5764e-05,-1.79e-05,0.0,0 STARLINK-3763,1 52556U 22051Z   24111.95185525 -.00001790  00000-0 -85764-4 0  9995,2 52556  53.2189 322.9873 0001338  93.2131 266.9015 15.12099961107887,6907.934,95.232,530.723,528.875,0.0
52556.0,STARLINK-3763,PAYLOAD,2024-04-21 19:27:59,15.12109627,0.0001653,53.2197,319.1096,83.8709,276.2472,-9.218e-05,-1.903e-05,0.0,0 STARLINK-3763,1 52556U 22051Z   24112.81110913 -.00001903  00000-0 -92180-4 0  9996,2 52556  53.2197 319.1096 0001653  83.8709 276.2472 15.12109627108015,6907.904,95.231,530.911,528.628,0.0
52556.0,STARLINK-3763,PAYLOAD,2024-04-21 22:38:20,15.12121117,0.0001425,53.2194,318.5129,103.8846,256.2306,-1.0518e-05,-4.81e-06,0.0,0 STARLINK-3763,1 52556U 22051Z   24112.94329088 -.00000481  00000-0 -10518-4 0  9990,2 52556  53.2194 318.5129 0001425 103.8846 256.2306 15.12121117107969,6907.869,95.23,530.719,528.75,0.0
52556.0,STARLINK-3763,PAYLOAD,2024-04-22 00:13:31,15.12120378,0.0001488,53.2194,318.2146,109.4176,250.6979,-1.668e-05,-5.88e-06,0.0,0 STARLINK-3763,1 52556U 22051Z   24113.00938752 -.00000588  00000-0 -16680-4 0  9996,2 52556  53.2194 318.2146 0001488 109.4176 250.6979 15.12120378108044,6907.872,95.231,530.765,528.709,0.0
52556.0,STARLINK-3763,PAYLOAD,2024-04-22 20:50:50,15.1210525,0.0001241,53.2182,314.3383,101.4614,258.6519,8.1518e-05,1.123e-05,0.0,0 STARLINK-3763,1 52556U 22051Z   24113.86864489  .00001123  00000-0  81518-4 0  9991,2 52556  53.2182 314.3383 0001241 101.4614 258.6519 15.12105250108171,6907.918,95.231,530.64,528.926,0.0
52556.0,STARLINK-3763,PAYLOAD,2024-04-23 20:38:31,15.12123777,0.0001119,53.2174,309.8646,118.0417,242.069,-1.7855e-05,-6.08e-06,0.0,0 STARLINK-3763,1 52556U 22051Z   24114.86008387 -.00000608  00000-0 -17855-4 0  9991,2 52556  53.2174 309.8646 0001119 118.0417 242.0690 15.12123777108320,6907.861,95.23,530.499,528.953,0.0
52556.0,STARLINK-3763,PAYLOAD,2024-04-23 22:13:42,15.12123273,0.00011,53.2175,309.5665,114.2937,245.8172,-2.1485e-05,-6.72e-06,0.0,0 STARLINK-3763,1 52556U 22051Z   24114.92618061 -.00000672  00000-0 -21485-4 0  9999,2 52556  53.2175 309.5665 0001100 114.2937 245.8172 15.12123273108264,6907.863,95.23,530.488,528.968,0.0
52556.0,STARLINK-3763,PAYLOAD,2024-04-24 12:30:18,15.12117325,0.0001031,53.2172,306.8845,112.9056,247.2047,-1.4323e-07,-3e-06,0.0,0 STARLINK-3763,1 52556U 22051Z   24115.52104925 -.00000300  00000-0 -14323-6 0  9998,2 52556  53.2172 306.8845 0001031 112.9056 247.2047 15.12117325108359,6907.881,95.231,530.458,529.034,0.0
52556.0,STARLINK-3763,PAYLOAD,2024-04-24 20:26:12,15.12113827,0.0001034,53.2175,305.392,110.4655,249.645,-1.9107e-05,-6.3e-06,0.0,0 STARLINK-3763,1 52556U 22051Z   24115.85153462 -.00000630  00000-0 -19107-4 0  9993,2 52556  53.2175 305.3920 0001034 110.4655 249.6450 15.12113827108471,6907.892,95.231,530.471,529.042,0.0
52556.0,STARLINK-3763,PAYLOAD,2024-04-25 12:18:00,15.12110816,0.0001099,53.2178,302.4108,93.8587,266.2533,-5.5209e-05,-1.259e-05,0.0,0 STARLINK-3763,1 52556U 22051Z   24116.51250411 -.00001259  00000-0 -55209-4 0  9990,2 52556  53.2178 302.4108 0001099  93.8587 266.2533 15.12110816108505,6907.901,95.231,530.525,529.007,0.0
52556.0,STARLINK-3763,PAYLOAD,2024-04-25 18:38:43,15.12114022,0.0001175,53.2177,301.219,85.7407,274.3721,-2.4039e-05,-7.16e-06,0.0,0 STARLINK-3763,1 52556U 22051Z   24116.77688729 -.00000716  00000-0 -24039-4 0  9999,2 52556  53.2177 301.2190 0001175  85.7407 274.3721 15.12114022108544,6907.891,95.231,530.568,528.944,0.0
52556.0,STARLINK-3763,PAYLOAD,2024-04-26 12:05:40,15.12109887,0.0001217,53.219,297.934,117.4489,242.6629,0.00018076,2.853e-05,0.0,0 STARLINK-3763,1 52556U 22051Z   24117.50393781  .00002853  00000-0  18076-3 0  9997,2 52556  53.2190 297.9340 0001217 117.4489 242.6629 15.12109887108725,6907.904,95.231,530.609,528.928,0.0
52556.0,STARLINK-3763,PAYLOAD,2024-04-26 18:26:23,15.12114381,0.0001236,53.2179,296.7451,88.3136,271.7999,4.8453e-05,5.47e-06,0.0,0 STARLINK-3763,1 52556U 22051Z   24117.76832704  .00000547  00000-0  48453-4 0  9999,2 52556  53.2179 296.7451 0001236  88.3136 271.7999 15.12114381108692,6907.89,95.231,530.609,528.901,0.0
52556.0,STARLINK-3763,PAYLOAD,2024-04-27 11:53:21,15.12099601,0.0001361,53.2179,293.4645,85.0309,275.084,0.00018632,2.949e-05,0.0,0 STARLINK-3763,1 52556U 22051Z   24118.49538989  .00002949  00000-0  18632-3 0  9991,2 52556  53.2179 293.4645 0001361  85.0309 275.0840 15.12099601108875,6907.935,95.232,530.74,528.86,0.0
52556.0,STARLINK-3763,PAYLOAD,2024-04-27 18:14:04,15.12100864,0.0001468,53.219,292.2705,96.4016,263.7145,0.00011341,1.678e-05,0.0,0 STARLINK-3763,1 52556U 22051Z   24118.75977955  .00001678  00000-0  11341-3 0  9998,2 52556  53.2190 292.2705 0001468  96.4016 263.7145 15.12100864108844,6907.931,95.232,530.81,528.782,0.0
52556.0,STARLINK-3763,PAYLOAD,2024-04-28 14:51:23,15.12132349,0.000168,53.2177,288.3912,95.5895,264.529,-0.00019551,-3.704e-05,0.0,0 STARLINK-3763,1 52556U 22051Z   24119.61902317 -.00003704  00000-0 -19551-3 0  9999,2 52556  53.2177 288.3912 0001680  95.5895 264.5290 15.12132349108973,6907.835,95.23,530.861,528.54,0.0
52556.0,STARLINK-3763,PAYLOAD,2024-04-28 18:01:45,15.12117151,0.0001232,53.2178,287.7972,91.9205,268.1929,-1.0087e-05,-4.73e-06,0.0,0 STARLINK-3763,1 52556U 22051Z   24119.75121779 -.00000473  00000-0 -10087-4 0  9995,2 52556  53.2178 287.7972 0001232  91.9205 268.1929 15.12117151109065,6907.882,95.231,530.598,528.895,0.0
52556.0,STARLINK-3763,PAYLOAD,2024-04-29 11:28:44,15.12099629,0.0001316,53.2172,284.5155,96.2056,263.9087,-4.7381e-05,-1.122e-05,0.0,0 STARLINK-3763,1 52556U 22051Z   24120.47829243 -.00001122  00000-0 -47381-4 0  9996,2 52556  53.2172 284.5155 0001316  96.2056 263.9087 15.12099629109171,6907.935,95.232,530.709,528.891,0.0
52556.0,STARLINK-3763,PAYLOAD,2024-04-29 14:39:05,15.12101308,0.0001468,53.2181,283.9207,105.0629,255.0528,-2.5079e-05,-7.34e-06,0.0,0 STARLINK-3763,1 52556U 22051Z   24120.61048392 -.00000734  00000-0 -25079-4 0  9998,2 52556  53.2181 283.9207 0001468 105.0629 255.0528 15.12101308109120,6907.93,95.232,530.809,528.781,0.0
52556.0,STARLINK-3763,PAYLOAD,2024-04-29 17:49:26,15.12103954,0.0001473,53.2186,283.3273,99.7774,260.3386,6.3903e-06,-1.86e-06,0.0,0 STARLINK-3763,1 52556U 22051Z   24120.74267334 -.00000186  00000-0  63903-5 0  9990,2 52556  53.2186 283.3273 0001473  99.7774 260.3386 15.12103954109218,6907.922,95.232,530.804,528.769,0.0
